     3.00           N                   E                   RINEX VERSION / TYPE
BRD_USR             ESA                 20190104 171913  UTCPGM / RUN BY / DATE
 GAL   4.4750E+01 -1.5625E-02 -2.1362E-03  0.0000E+00       IONOSPHERIC CORR
GAUT -9.3132257462E-10 0.000000000E+00 432000 2034 GSTB   0 TIME SYSTEM CORR
GPGA -3.2014213502E-09-1.332267630E-15 518400 2034 GSTB   0 TIME SYSTEM CORR
                                                            END OF HEADER
E30 2019 01 04 15 30 00 5.215262470301E-03-3.048228336411E-11 0.000000000000E+00
     4.500000000000E+01 1.830937500000E+02 2.452245002990E-09-2.984209436736E+00
     8.564442396164E-06 2.970837522298E-04 9.950250387192E-06 5.440624664307E+03
     4.878000000000E+05 2.235174179077E-08-2.821818038334E+00 9.313225746155E-09
     9.879030417842E-01 1.394375000000E+02 4.905504711561E-01-5.243075537999E-09
     5.285934466102E-11 5.210000000000E+02 2.034000000000E+03 0.000000000000E+00
     3.120000000000E+00 0.000000000000E+00-3.026798367500E-09-3.725290298462E-09
     4.884850000000E+05 0.000000000000E+00 0.000000000000E+00 0.000000000000E+00
E31 2019 01 04 15 30 00 9.411550126970E-04-9.734435479913E-12 0.000000000000E+00
     4.500000000000E+01 1.939062500000E+02 2.425458172926E-09 2.210431282844E+00
     9.024515748024E-06 2.587431808934E-04 8.668750524521E-06 5.440634489059E+03
     4.878000000000E+05 2.048909664154E-08-2.827874851264E+00 5.960464477539E-08
     9.898920178902E-01 1.666875000000E+02-1.542356650740E+00-5.209859868718E-09
     4.535903224290E-11 5.210000000000E+02 2.034000000000E+03 0.000000000000E+00
     3.120000000000E+00 0.000000000000E+00 0.000000000000E+00 0.000000000000E+00
     4.884850000000E+05 0.000000000000E+00 0.000000000000E+00 0.000000000000E+00
E33 2019 01 04 15 30 00 8.478654199280E-04 4.263256414561E-14 0.000000000000E+00
     4.500000000000E+01-1.863750000000E+02 2.610823036973E-09 8.643503467928E-01
    -8.625909686089E-06 3.517321310937E-04 6.239861249924E-06 5.440599678040E+03
     4.878000000000E+05-1.862645149231E-08-7.448622585029E-01 1.862645149231E-09
     9.852485432822E-01 2.145312500000E+02-1.524385078106E+00-5.455941547579E-09
    -2.039370662260E-10 5.210000000000E+02 2.034000000000E+03 0.000000000000E+00
     3.120000000000E+00 4.550000000000E+02-7.916241884232E-09-8.847564458847E-09
     4.884850000000E+05 0.000000000000E+00 0.000000000000E+00 0.000000000000E+00
E36 2019 01 04 15 30 00 7.635845104232E-04-4.547473508865E-12 0.000000000000E+00
     4.500000000000E+01-2.212187500000E+02 2.614394614315E-09-1.366634383545E+00
    -1.017376780510E-05 3.219806822017E-04 6.031244993210E-06 5.440601701736E+03
     4.878000000000E+05 3.725290298462E-08-7.448354168820E-01 2.607703208923E-08
     9.852570911126E-01 2.224687500000E+02-1.647837928938E+00-5.494157425138E-09
    -2.192948487964E-10 5.210000000000E+02 2.034000000000E+03 0.000000000000E+00
     3.120000000000E+00 4.550000000000E+02 9.313225746155E-10 1.164153218269E-09
     4.884850000000E+05 0.000000000000E+00 0.000000000000E+00 0.000000000000E+00
E03 2019 01 04 15 30 00-1.184374559671E-04-4.277467269276E-12 0.000000000000E+00
     4.500000000000E+01 1.315625000000E+01 3.839445642608E-09-2.673648626254E-01
     6.128102540970E-07 2.826167037711E-04 4.259869456291E-06 5.440602579117E+03
     4.878000000000E+05-1.862645149231E-09 1.365678177864E+00-7.450580596924E-09
     9.521503669875E-01 2.464062500000E+02 6.494986929019E-01-5.762025725785E-09
     2.007226466182E-10 2.580000000000E+02 2.034000000000E+03 0.000000000000E+00
     3.120000000000E+00 0.000000000000E+00-1.862645149231E-09 0.000000000000E+00
     4.885000000000E+05 0.000000000000E+00 0.000000000000E+00 0.000000000000E+00
E05 2019 01 04 15 30 00 1.308011123911E-04-6.551204023708E-12 0.000000000000E+00
     4.500000000000E+01 1.000000000000E+01 3.854446267444E-09-3.471608249847E-01
     5.178153514862E-07 1.532653113827E-04 4.084780812263E-06 5.440601129532E+03
     4.878000000000E+05 2.421438694000E-08 1.365662357867E+00-5.587935447693E-09
     9.521637380587E-01 2.481562500000E+02 1.516756870257E+00-5.783098032103E-09
     1.707213969457E-10 2.580000000000E+02 2.034000000000E+03 0.000000000000E+00
     3.120000000000E+00 0.000000000000E+00-1.629814505577E-09 0.000000000000E+00
     4.885000000000E+05 0.000000000000E+00 0.000000000000E+00 0.000000000000E+00
E07 2019 01 04 15 30 00-1.063561649062E-04-7.105427357601E-12 0.000000000000E+00
     4.500000000000E+01 1.356250000000E+01 3.911948662650E-09-1.308814064971E+00
     6.612390279770E-07 1.485794782639E-04 3.898516297340E-06 5.440605167389E+03
     4.878000000000E+05-2.235174179077E-08 1.365679632004E+00 5.960464477539E-08
     9.521928237960E-01 2.545000000000E+02 1.205239688785E-01-5.870601676981E-09
     2.525105180766E-10 2.580000000000E+02 2.034000000000E+03 0.000000000000E+00
     3.120000000000E+00 0.000000000000E+00 2.328306436539E-10 0.000000000000E+00
     4.885000000000E+05 0.000000000000E+00 0.000000000000E+00 0.000000000000E+00
E08 2019 01 04 15 30 00 6.429997854866E-03-7.446487870766E-12 0.000000000000E+00
     4.500000000000E+01 1.796875000000E+01 3.769085568971E-09-9.186631188520E-01
     8.959323167801E-07 2.344930544496E-04 4.138797521591E-06 5.440603906631E+03
     4.878000000000E+05-1.676380634308E-08 1.357029346199E+00-2.421438694000E-08
     9.581347815652E-01 2.525000000000E+02 5.170315222668E-01-5.732738791581E-09
     2.657253542419E-10 2.580000000000E+02 2.034000000000E+03 0.000000000000E+00
     3.120000000000E+00 0.000000000000E+00-8.381903171539E-09 0.000000000000E+00
     4.885000000000E+05 0.000000000000E+00 0.000000000000E+00 0.000000000000E+00
E11 2019 01 04 15 30 00 5.718977306969E-03 1.080024958355E-12 0.000000000000E+00
     4.500000000000E+01-2.080000000000E+02 2.613680298847E-09-1.874112575306E+00
    -9.659677743912E-06 2.364577958360E-04 6.595626473427E-06 5.440611957550E+03
     4.878000000000E+05-1.490116119385E-08-7.395222154515E-01 1.862645149231E-08
     9.820115634662E-01 2.085000000000E+02-3.602130444563E-01-5.480942588973E-09
    -2.450102056585E-10 2.580000000000E+02 2.034000000000E+03 0.000000000000E+00
     3.120000000000E+00 0.000000000000E+00-1.862645149231E-08 0.000000000000E+00
     4.885000000000E+05 0.000000000000E+00 0.000000000000E+00 0.000000000000E+00
E12 2019 01 04 15 30 00 5.868552310858E-03 8.431300102529E-11 0.000000000000E+00
     4.500000000000E+01-1.977187500000E+02 2.657253542419E-09-5.253222944907E-01
    -9.253621101379E-06 3.659824142233E-04 6.280839443207E-06 5.440610462189E+03
     4.878000000000E+05-3.725290298462E-09-7.395382797549E-01 7.450580596924E-09
     9.820253617095E-01 2.126562500000E+02-9.053321973942E-01-5.493085951936E-09
    -2.289381076197E-10 2.580000000000E+02 2.034000000000E+03 0.000000000000E+00
     3.120000000000E+00 0.000000000000E+00-1.559965312481E-08 0.000000000000E+00
     4.885000000000E+05 0.000000000000E+00 0.000000000000E+00 0.000000000000E+00
E14 2019 01 04 15 30 00 6.464835430961E-03-5.698552740796E-12 0.000000000000E+00
     4.500000000000E+01-2.398125000000E+02 4.926990943235E-09 3.082662980830E+00
    -9.935349225998E-06 1.663837115047E-01-8.763745427132E-06 5.289389417648E+03
     4.878000000000E+05 2.453103661537E-06-1.339656797557E+00-1.471489667892E-07
     8.825686493382E-01 5.100312500000E+02 1.451848713589E+00-6.183829009871E-09
     2.857261873569E-12 2.580000000000E+02 2.034000000000E+03 0.000000000000E+00
     3.120000000000E+00 5.600000000000E+01 3.306195139885E-08 0.000000000000E+00
     4.885000000000E+05 0.000000000000E+00 0.000000000000E+00 0.000000000000E+00
E15 2019 01 04 15 30 00 9.238764178008E-04-1.037392394210E-12 0.000000000000E+00
     4.500000000000E+01-1.977500000000E+02 2.636538393835E-09-2.891762667922E+00
    -9.313225746155E-06 3.812597133219E-04 4.736706614494E-06 5.440601476669E+03
     4.878000000000E+05 2.980232238770E-08-7.448369236876E-01-4.656612873077E-08
     9.852106507781E-01 2.486250000000E+02-1.695621810254E+00-5.475942380694E-09
    -2.182233755938E-10 2.580000000000E+02 2.034000000000E+03 0.000000000000E+00
     3.120000000000E+00 5.600000000000E+01 1.396983861923E-09 0.000000000000E+00
     4.885000000000E+05 0.000000000000E+00 0.000000000000E+00 0.000000000000E+00
E19 2019 01 04 15 30 00-9.375566150993E-06 2.415845301584E-13 0.000000000000E+00
     4.500000000000E+01 1.243750000000E+01 3.771942830845E-09 1.397713972809E+00
     5.196779966354E-07 1.412821002305E-04 3.978610038757E-06 5.440601606369E+03
     4.878000000000E+05-2.980232238770E-08 1.362386092849E+00-5.774199962616E-08
     9.579214881093E-01 2.543125000000E+02 2.205745118824E+00-5.787026767179E-09
     1.346484657919E-10 2.580000000000E+02 2.034000000000E+03 0.000000000000E+00
     3.120000000000E+00 0.000000000000E+00-8.847564458847E-09 0.000000000000E+00
     4.885000000000E+05 0.000000000000E+00 0.000000000000E+00 0.000000000000E+00
E21 2019 01 04 15 30 00-5.127701442689E-04-1.861621967691E-12 0.000000000000E+00
     4.500000000000E+01 1.650312500000E+02 2.227235630447E-09 2.599713404841E+00
     7.718801498413E-06 4.485016688704E-05 9.227544069290E-06 5.440641954422E+03
     4.878000000000E+05-2.980232238770E-08-2.827842320355E+00-1.490116119385E-07
     9.899171493598E-01 1.605312500000E+02-3.622853937265E-01-5.109498545409E-09
     2.071514858337E-11 2.580000000000E+02 2.034000000000E+03 0.000000000000E+00
     3.120000000000E+00 0.000000000000E+00-2.561137080193E-09 0.000000000000E+00
     4.885000000000E+05 0.000000000000E+00 0.000000000000E+00 0.000000000000E+00
